NORAD_CAT_ID,OBJECT_NAME,OBJECT_TYPE,EPOCH,MEAN_MOTION,ECCENTRICITY,INCLINATION,RA_OF_ASC_NODE,ARG_OF_PERICENTER,MEAN_ANOMALY,BSTAR,MEAN_MOTION_DOT,MEAN_MOTION_DDOT,TLE_LINE0,TLE_LINE1,TLE_LINE2,SEMIMAJOR_AXIS,PERIOD,APOGEE,PERIGEE,DECAYED
49445.0,STARLINK-3122,PAYLOAD,2024-02-26 02:45:18,15.08856181,0.0001726,53.2177,313.0646,105.4087,254.7096,0.00044625,6.824e-05,0.0,0 STARLINK-3122,1 49445U 21104AP  24057.11480060  .00006824  00000-0  44625-3 0  9996,2 49445  53.2177 313.0646 0001726 105.4087 254.7096 15.08856181126664,6917.831,95.437,540.89,538.502,0.0
49445.0,STARLINK-3122,PAYLOAD,2024-02-26 20:14:33,15.08836511,0.0001678,53.2156,309.7962,89.1631,270.9554,9.6345e-05,1.245e-05,0.0,0 STARLINK-3122,1 49445U 21104AP  24057.84344905  .00001245  00000-0  96345-4 0  9992,2 49445  53.2156 309.7962 0001678  89.1631 270.9554 15.08836511127859,6917.891,95.438,540.917,538.595,0.0
49445.0,STARLINK-3122,PAYLOAD,2024-02-26 21:49:57,15.0883891,0.0001842,53.2167,309.4983,89.1253,270.995,0.00018032,2.583e-05,0.0,0 STARLINK-3122,1 49445U 21104AP  24057.90968954  .00002583  00000-0  18032-3 0  9997,2 49445  53.2167 309.4983 0001842  89.1253 270.9950 15.08838910126780,6917.884,95.438,541.023,538.474,0.0
49445.0,STARLINK-3122,PAYLOAD,2024-02-27 02:36:06,15.08844883,0.0001506,53.2173,308.6018,98.1424,261.9739,0.00057446,8.868e-05,0.0,0 STARLINK-3122,1 49445U 21104AP  24058.10840797  .00008868  00000-0  57446-3 0  9998,2 49445  53.2173 308.6018 0001506  98.1424 261.9739 15.08844883126819,6917.865,95.437,540.772,538.689,0.0
49445.0,STARLINK-3122,PAYLOAD,2024-02-27 23:16:07,15.08838055,0.0001365,53.2169,304.7378,95.4467,264.6681,0.0002303,3.379e-05,0.0,0 STARLINK-3122,1 49445U 21104AP  24058.96953062  .00003379  00000-0  23030-3 0  9996,2 49445  53.2169 304.7378 0001365  95.4467 264.6681 15.08838055126944,6917.886,95.438,540.696,538.807,0.0
49445.0,STARLINK-3122,PAYLOAD,2024-02-28 08:48:26,15.08835411,0.0001293,53.2167,302.9553,93.458,266.656,0.00043963,6.715e-05,0.0,0 STARLINK-3122,1 49445U 21104AP  24059.36697464  .00006715  00000-0  43963-3 0  9996,2 49445  53.2167 302.9553 0001293  93.4580 266.6560 15.08835411127000,6917.894,95.438,540.654,538.865,0.0
49445.0,STARLINK-3122,PAYLOAD,2024-02-28 19:56:08,15.08836507,0.0001437,53.2172,300.8764,103.212,256.9032,0.00012373,1.682e-05,0.0,0 STARLINK-3122,1 49445U 21104AP  24059.83065607  .00001682  00000-0  12373-3 0  9995,2 49445  53.2172 300.8764 0001437 103.2120 256.9032 15.08836507128157,6917.891,95.438,540.75,538.762,0.0
49445.0,STARLINK-3122,PAYLOAD,2024-02-28 21:31:31,15.08836301,0.0001429,53.2173,300.5791,102.8065,257.3087,0.0001236,1.68e-05,0.0,0 STARLINK-3122,1 49445U 21104AP  24059.89689632  .00001680  00000-0  12360-3 0  9995,2 49445  53.2173 300.5791 0001429 102.8065 257.3087 15.08836301127087,6917.892,95.438,540.745,538.768,0.0
49445.0,STARLINK-3122,PAYLOAD,2024-02-29 08:39:13,15.08841208,0.0001345,53.2175,298.4948,93.6322,266.4824,6.2282e-05,7.03e-06,0.0,0 STARLINK-3122,1 49445U 21104AP  24060.36057536  .00000703  00000-0  62282-4 0  9995,2 49445  53.2175 298.4948 0001345  93.6322 266.4824 15.08841208127158,6917.877,95.437,540.672,538.811,0.0
49445.0,STARLINK-3122,PAYLOAD,2024-02-29 21:22:18,15.08845036,0.0001324,53.2171,296.1157,91.3127,268.8017,0.00023087,3.389e-05,0.0,0 STARLINK-3122,1 49445U 21104AP  24060.89049485  .00003389  00000-0  23087-3 0  9999,2 49445  53.2171 296.1157 0001324  91.3127 268.8017 15.08845036128318,6917.865,95.437,540.646,538.814,0.0
49445.0,STARLINK-3122,PAYLOAD,2024-03-01 08:30:00,15.08839113,8.4e-05,53.2171,294.0341,98.5244,261.5843,6.3571e-05,7.24e-06,0.0,0 STARLINK-3122,1 49445U 21104AP  24061.35417496  .00000724  00000-0  63571-4 0  9995,2 49445  53.2171 294.0341 0000840  98.5244 261.5843 15.08839113127305,6917.883,95.438,540.329,539.167,0.0
49445.0,STARLINK-3122,PAYLOAD,2024-03-01 21:13:06,15.08838165,0.0001252,53.2168,291.6545,91.216,268.8976,6.8423e-05,8.01e-06,0.0,0 STARLINK-3122,1 49445U 21104AP  24061.88409844  .00000801  00000-0  68423-4 0  9998,2 49445  53.2168 291.6545 0001252  91.2160 268.8976 15.08838165127386,6917.886,95.438,540.617,538.885,0.0
49445.0,STARLINK-3122,PAYLOAD,2024-03-01 22:48:29,15.08838242,0.000123,53.2165,291.3574,90.9882,269.1251,7.1618e-05,8.52e-06,0.0,0 STARLINK-3122,1 49445U 21104AP  24061.95033870  .00000852  00000-0  71618-4 0  9994,2 49445  53.2165 291.3574 0001230  90.9882 269.1251 15.08838242127392,6917.886,95.438,540.602,538.9,0.0
49445.0,STARLINK-3122,PAYLOAD,2024-03-02 19:28:29,15.08846892,0.0001247,53.2162,287.4911,88.737,271.3765,0.00033623,5.068e-05,0.0,0 STARLINK-3122,1 49445U 21104AP  24062.81145746  .00005068  00000-0  33623-3 0  9993,2 49445  53.2162 287.4911 0001247  88.7370 271.3765 15.08846892128605,6917.859,95.437,540.587,538.862,0.0
49445.0,STARLINK-3122,PAYLOAD,2024-03-02 21:03:52,15.08848204,0.000116,53.2155,287.1936,91.0263,269.0862,0.00035395,5.351e-05,0.0,0 STARLINK-3122,1 49445U 21104AP  24062.87769649  .00005351  00000-0  35395-3 0  9996,2 49445  53.2155 287.1936 0001160  91.0263 269.0862 15.08848204127535,6917.855,95.437,540.523,538.918,0.0
49445.0,STARLINK-3122,PAYLOAD,2024-03-03 08:11:34,15.08847009,0.000113,53.2167,285.1073,115.672,244.4389,0.00031155,4.675e-05,0.0,0 STARLINK-3122,1 49445U 21104AP  24063.34137635  .00004675  00000-0  31155-3 0  9991,2 49445  53.2167 285.1073 0001130 115.6720 244.4389 15.08847009127607,6917.859,95.437,540.506,538.942,0.0
49445.0,STARLINK-3122,PAYLOAD,2024-03-03 20:54:39,15.088617,0.0001312,53.2164,282.7301,98.3747,261.7393,0.00066258,0.00010279,0.0,0 STARLINK-3122,1 49445U 21104AP  24063.87129385  .00010279  00000-0  66258-3 0  9991,2 49445  53.2164 282.7301 0001312  98.3747 261.7393 15.08861700127688,6917.814,95.436,540.587,538.771,0.0
49445.0,STARLINK-3122,PAYLOAD,2024-03-04 00:05:25,15.08860517,0.0001225,53.2155,282.1338,114.6867,245.4252,0.00065625,0.00010178,0.0,0 STARLINK-3122,1 49445U 21104AP  24064.00377158  .00010178  00000-0  65625-3 0  9995,2 49445  53.2155 282.1338 0001225 114.6867 245.4252 15.08860517128780,6917.818,95.436,540.53,538.835,0.0
49445.0,STARLINK-3122,PAYLOAD,2024-03-04 08:02:21,15.08855619,0.0001389,53.2167,280.6477,103.7202,256.3945,0.00041242,6.285e-05,0.0,0 STARLINK-3122,1 49445U 21104AP  24064.33497158  .00006285  00000-0  41242-3 0  9997,2 49445  53.2167 280.6477 0001389 103.7202 256.3945 15.08855619128836,6917.833,95.437,540.659,538.737,0.0
49445.0,STARLINK-3122,PAYLOAD,2024-03-04 20:45:26,15.08860025,0.0001476,53.2172,278.2706,98.6463,261.4696,0.00043789,6.692e-05,0.0,0 STARLINK-3122,1 49445U 21104AP  24064.86488624  .00006692  00000-0  43789-3 0  9993,2 49445  53.2172 278.2706 0001476  98.6463 261.4696 15.08860025127834,6917.819,95.436,540.705,538.663,0.0
49445.0,STARLINK-3122,PAYLOAD,2024-03-05 14:14:40,15.08841917,0.0001446,53.216,274.9978,98.3885,261.7271,-1.4447e-06,-3.11e-06,0.0,0 STARLINK-3122,1 49445U 21104AP  24065.59352956 -.00000311  00000-0 -14447-5 0  9997,2 49445  53.2160 274.9978 0001446  98.3885 261.7271 15.08841917127940,6917.875,95.437,540.74,538.739,0.0
49445.0,STARLINK-3122,PAYLOAD,2024-03-05 20:36:13,15.08831866,0.0001235,53.2162,273.808,80.2085,279.9046,-0.00020496,-3.548e-05,0.0,0 STARLINK-3122,1 49445U 21104AP  24065.85849392 -.00003548  00000-0 -20496-3 0  9995,2 49445  53.2162 273.8080 0001235  80.2085 279.9046 15.08831866129060,6917.905,95.438,540.625,538.916,0.0
49445.0,STARLINK-3122,PAYLOAD,2024-03-06 14:05:28,15.08834032,0.000128,53.2165,270.5409,101.4878,258.6258,-1.6329e-05,-5.48e-06,0.0,0 STARLINK-3122,1 49445U 21104AP  24066.58713748 -.00000548  00000-0 -16329-4 0  9999,2 49445  53.2165 270.5409 0001280 101.4878 258.6258 15.08834032128097,6917.899,95.438,540.649,538.878,0.0
49445.0,STARLINK-3122,PAYLOAD,2024-03-06 18:51:37,15.08839476,0.0001278,53.216,269.6482,102.7906,257.3229,1.7811e-05,-4e-08,0.0,0 STARLINK-3122,1 49445U 21104AP  24066.78585646 -.00000004  00000-0  17811-4 0  9998,2 49445  53.2160 269.6482 0001278 102.7906 257.3229 15.08839476129200,6917.882,95.438,540.631,538.863,0.0
49445.0,STARLINK-3122,PAYLOAD,2024-03-07 05:59:19,15.08843522,0.0001249,53.2161,267.568,102.3855,257.7277,0.00027637,4.114e-05,0.0,0 STARLINK-3122,1 49445U 21104AP  24067.24953654  .00004114  00000-0  27637-3 0  9999,2 49445  53.2161 267.5680 0001249 102.3855 257.7277 15.08843522128196,6917.87,95.437,540.599,538.871,0.0
49445.0,STARLINK-3122,PAYLOAD,2024-03-08 05:50:07,15.08843733,0.0001283,53.216,263.108,97.4457,262.668,0.00025602,3.789e-05,0.0,0 STARLINK-3122,1 49445U 21104AP  24068.24314037  .00003789  00000-0  25602-3 0  9993,2 49445  53.2160 263.1080 0001283  97.4457 262.6680 15.08843733129425,6917.869,95.437,540.622,538.846,0.0
49445.0,STARLINK-3122,PAYLOAD,2024-03-08 21:43:58,15.08838628,0.0001358,53.2166,260.1355,100.9668,259.1477,7.3177e-05,8.77e-06,0.0,0 STARLINK-3122,1 49445U 21104AP  24068.90554287  .00000877  00000-0  73177-4 0  9995,2 49445  53.2166 260.1355 0001358 100.9668 259.1477 15.08838628128443,6917.885,95.438,540.689,538.81,0.0
49445.0,STARLINK-3122,PAYLOAD,2024-03-08 23:19:22,15.08839736,0.0001412,53.2171,259.8374,100.5117,259.6034,9.3433e-05,1.199e-05,0.0,0 STARLINK-3122,1 49445U 21104AP  24068.97178257  .00001199  00000-0  93433-4 0  9996,2 49445  53.2171 259.8374 0001412 100.5117 259.6034 15.08839736129537,6917.881,95.438,540.723,538.769,0.0
49445.0,STARLINK-3122,PAYLOAD,2024-03-09 05:40:54,15.08844803,0.0001573,53.2173,258.6467,83.6882,276.4289,0.0001805,2.586e-05,0.0,0 STARLINK-3122,1 49445U 21104AP  24069.23674209  .00002586  00000-0  18050-3 0  9996,2 49445  53.2173 258.6467 0001573  83.6882 276.4289 15.08844803128491,6917.866,95.437,540.819,538.643,0.0
49445.0,STARLINK-3122,PAYLOAD,2024-03-10 05:31:42,15.08836002,0.0002081,53.2159,254.1858,82.9688,277.1541,0.00019351,2.793e-05,0.0,0 STARLINK-3122,1 49445U 21104AP  24070.23034989  .00002793  00000-0  19351-3 0  9998,2 49445  53.2159 254.1858 0002081  82.9688 277.1541 15.08836002129729,6917.893,95.438,541.197,538.318,0.0
